{
    "links": {
        "self": "http://www.neowsapp.com/rest/v1/neo/3620679?api_key=iIulBulltgU6a56xZRHN4H3l9WmuAYTsLGpBGhQ2"
    },
    "id": "3620679",
    "neo_reference_id": "3620679",
    "name": "(2012 XK112)",
    "designation": "2012 XK112",
    "nasa_jpl_url": "http://ssd.jpl.nasa.gov/sbdb.cgi?sstr=3620679",
    "absolute_magnitude_h": 24.2,
    "estimated_diameter": {
        "kilometers": {
            "estimated_diameter_min": 0.0384197891,
            "estimated_diameter_max": 0.0859092601
        },
        "meters": {
            "estimated_diameter_min": 38.4197891064,
            "estimated_diameter_max": 85.9092601232
        },
        "miles": {
            "estimated_diameter_min": 0.0238729428,
            "estimated_diameter_max": 0.0533815229
        },
        "feet": {
            "estimated_diameter_min": 126.0491808919,
            "estimated_diameter_max": 281.8545369825
        }
    },
    "is_potentially_hazardous_asteroid": false,
    "close_approach_data": [
        {
            "close_approach_date": "2012-07-31",
            "close_approach_date_full": "2012-Jul-31 00:45",
            "epoch_date_close_approach": 1343695500000,
            "relative_velocity": {
                "kilometers_per_second": "4.2774924983",
                "kilometers_per_hour": "15398.9729937577",
                "miles_per_hour": "9568.3229693713"
            },
            "miss_distance": {
                "astronomical": "0.3671547595",
                "lunar": "142.8232014455",
                "kilometers": "54925569.981562265",
                "miles": "34129166.596058657"
            },
            "orbiting_body": "Earth"
        },
        {
            "close_approach_date": "2012-12-06",
            "close_approach_date_full": "2012-Dec-06 11:06",
            "epoch_date_close_approach": 1354791960000,
            "relative_velocity": {
                "kilometers_per_second": "9.0421709336",
                "kilometers_per_hour": "32551.8153607983",
                "miles_per_hour": "20226.4321612694"
            },
            "miss_distance": {
                "astronomical": "0.0559541721",
                "lunar": "21.7661729469",
                "kilometers": "8370624.963773427",
                "miles": "5201265.1666182126"
            },
            "orbiting_body": "Earth"
        },
        {
            "close_approach_date": "2019-07-29",
            "close_approach_date_full": "2019-Jul-29 02:51",
            "epoch_date_close_approach": 1564368660000,
            "relative_velocity": {
                "kilometers_per_second": "20.740139881",
                "kilometers_per_hour": "74664.5035714733",
                "miles_per_hour": "46393.6188997302"
            },
            "miss_distance": {
                "astronomical": "0.4534080528",
                "lunar": "176.3757325392",
                "kilometers": "67828878.939727536",
                "miles": "42146910.9949145568"
            },
            "orbiting_body": "Earth"
        }
    ],
    "orbital_data": {
        "orbit_id": "9",
        "orbit_determination_date": "2017-04-06 08:47:38",
        "first_observation_date": "2012-12-12",
        "last_observation_date": "2012-12-23",
        "data_arc_in_days": 11,
        "observations_used": 33,
        "orbit_uncertainty": "8",
        "minimum_orbit_intersection": ".0524082",
        "jupiter_tisserand_invariant": "4.600",
        "epoch_osculation": "2456276.5",
        "eccentricity": ".354558807700507",
        "semi_major_axis": "1.435022181815712",
        "inclination": "7.221279884994804",
        "ascending_node_longitude": "94.35135113785674",
        "orbital_period": "627.8940218714747",
        "perihelion_distance": ".926222428007353",
        "perihelion_argument": "291.3853990685085",
        "aphelion_distance": "1.943821935624072",
        "perihelion_time": "2456228.660148411372",
        "mean_anomaly": "27.42874748285367",
        "mean_motion": ".573345162495733",
        "equinox": "J2000",
        "orbit_class": {
            "orbit_class_type": "APO",
            "orbit_class_description": "Near-Earth asteroid orbits which cross the Earth’s orbit similar to that of 1862 Apollo",
            "orbit_class_range": "a (semi-major axis) > 1.0 AU; q (perihelion) < 1.017 AU"
        }
    },
    "is_sentry_object": false
}